{"type": "FeatureCollection", "features": [ {"type": "Feature", "properties": {"norad_id": 34117, "name": "COSMOS 2251 DEB", "group": "cosmos-2251-debris", "lat": -58.53545842291508, "lon": -162.96810870142093, "alt_km": 804.042918156435, "timestamp": "2025-12-09T20:37:09.683393+00:00", "meta": {"OBJECT_NAME": "COSMOS 2251 DEB", "OBJECT_ID": "1993-036KN", "EPOCH": "2025-12-09T11:09:46.873440", "MEAN_MOTION": 14.39991314, "ECCENTRICITY": 0.00544426, "INCLINATION": 74.0403, "RA_OF_ASC_NODE": 349.8785, "ARG_OF_PERICENTER": 67.2323, "MEAN_ANOMALY": 293.4571, "EPHEMERIS_TYPE": 0, "CLASSIFICATION_TYPE": "U", "NORAD_CAT_ID": 34117, "ELEMENT_SET_NO": 999, "REV_AT_EPOCH": 88076, "BSTAR": 0.0010533731, "MEAN_MOTION_DOT": 3.351e-05, "MEAN_MOTION_DDOT": 0}, "tle": {"line1": "1 34117U 93036KN  25343.46512585  .00003351  00000+0  10534-2 0  9996", "line2": "2 34117  74.0403 349.8785 0054442  67.2323 293.4571 14.39991314880766"}}, "geometry": {"type": "Point", "coordinates": [-162.96810870142093, -58.53545842291508]}}, {"type": "Feature", "properties": {"norad_id": 34118, "name": "COSMOS 2251 DEB", "group": "cosmos-2251-debris", "lat": 60.02552754663977, "lon": 45.19486769514125, "alt_km": 543.6166604452019, "timestamp": "2025-12-09T20:37:09.683404+00:00", "meta": {"OBJECT_NAME": "COSMOS 2251 DEB", "OBJECT_ID": "1993-036KP", "EPOCH": "2025-12-09T12:51:01.999584", "MEAN_MOTION": 14.93736083, "ECCENTRICITY": 0.00599671, "INCLINATION": 73.9524, "RA_OF_ASC_NODE": 255.7878, "ARG_OF_PERICENTER": 86.9463, "MEAN_ANOMALY": 88.367, "EPHEMERIS_TYPE": 0, "CLASSIFICATION_TYPE": "U", "NORAD_CAT_ID": 34118, "ELEMENT_SET_NO": 999, "REV_AT_EPOCH": 89128, "BSTAR": 0.002764188, "MEAN_MOTION_DOT": 0.00030423, "MEAN_MOTION_DDOT": 0}, "tle": {"line1": "1 34118U 93036KP  25343.53543981  .00030423  00000+0  27642-2 0  9997", "line2": "2 34118  73.9524 255.7878 0059967  86.9463  88.3670 14.93736083891287"}}, "geometry": {"type": "Point", "coordinates": [45.19486769514125, 60.02552754663977]}}, {"type": "Feature", "properties": {"norad_id": 34120, "name": "COSMOS 2251 DEB", "group": "cosmos-2251-debris", "lat": 64.8572734303952, "lon": -101.0794636374137, "alt_km": 767.7336238614935, "timestamp": "2025-12-09T20:37:09.683415+00:00", "meta": {"OBJECT_NAME": "COSMOS 2251 DEB", "OBJECT_ID": "1993-036KR", "EPOCH": "2025-12-09T10:48:34.286976", "MEAN_MOTION": 13.98678438, "ECCENTRICITY": 0.01818141, "INCLINATION": 73.9916, "RA_OF_ASC_NODE": 221.918, "ARG_OF_PERICENTER": 50.3404, "MEAN_ANOMALY": 121.9975, "EPHEMERIS_TYPE": 0, "CLASSIFICATION_TYPE": "U", "NORAD_CAT_ID": 34120, "ELEMENT_SET_NO": 999, "REV_AT_EPOCH": 85934, "BSTAR": 0.00058834419, "MEAN_MOTION_DOT": 9.5e-06, "MEAN_MOTION_DDOT": 0}, "tle": {"line1": "1 34120U 93036KR  25343.45039684  .00000950  00000+0  58834-3 0  9991", "line2": "2 34120  73.9916 221.9180 0181814  50.3404 121.9975 13.98678438859349"}}, "geometry": {"type": "Point", "coordinates": [-101.0794636374137, 64.8572734303952]}}, {"type": "Feature", "properties": {"norad_id": 34121, "name": "COSMOS 2251 DEB", "group": "cosmos-2251-debris", "lat": -5.565065241334149, "lon": 100.50430366137827, "alt_km": 801.6033435449035, "timestamp": "2025-12-09T20:37:09.683425+00:00", "meta": {"OBJECT_NAME": "COSMOS 2251 DEB", "OBJECT_ID": "1993-036KS", "EPOCH": "2025-12-09T12:24:06.509664", "MEAN_MOTION": 13.91912384, "ECCENTRICITY": 0.024009, "INCLINATION": 73.993, "RA_OF_ASC_NODE": 102.6935, "ARG_OF_PERICENTER": 308.8299, "MEAN_ANOMALY": 128.4774, "EPHEMERIS_TYPE": 0, "CLASSIFICATION_TYPE": "U", "NORAD_CAT_ID": 34121, "ELEMENT_SET_NO": 999, "REV_AT_EPOCH": 85080, "BSTAR": 0.0018164871, "MEAN_MOTION_DOT": 2.905e-05, "MEAN_MOTION_DDOT": 0}, "tle": {"line1": "1 34121U 93036KS  25343.51674201  .00002905  00000+0  18165-2 0  9993", "line2": "2 34121  73.9930 102.6935 0240090 308.8299 128.4774 13.91912384850809"}}, "geometry": {"type": "Point", "coordinates": [100.50430366137827, -5.565065241334149]}}, {"type": "Feature", "properties": {"norad_id": 34122, "name": "COSMOS 2251 DEB", "group": "cosmos-2251-debris", "lat": -24.270087484855186, "lon": -48.40815585031863, "alt_km": 741.5895846791027, "timestamp": "2025-12-09T20:37:09.683435+00:00", "meta": {"OBJECT_NAME": "COSMOS 2251 DEB", "OBJECT_ID": "1993-036KT", "EPOCH": "2025-12-09T11:48:06.587424", "MEAN_MOTION": 14.64980279, "ECCENTRICITY": 0.00841541, "INCLINATION": 74.0363, "RA_OF_ASC_NODE": 124.8826, "ARG_OF_PERICENTER": 22.6595, "MEAN_ANOMALY": 45.7698, "EPHEMERIS_TYPE": 0, "CLASSIFICATION_TYPE": "U", "NORAD_CAT_ID": 34122, "ELEMENT_SET_NO": 999, "REV_AT_EPOCH": 88637, "BSTAR": 0.0016259354, "MEAN_MOTION_DOT": 9.155e-05, "MEAN_MOTION_DDOT": 0}, "tle": {"line1": "1 34122U 93036KT  25343.49174291  .00009155  00000+0  16259-2 0  9991", "line2": "2 34122  74.0363 124.8826 0084154  22.6595  45.7698 14.64980279886370"}}, "geometry": {"type": "Point", "coordinates": [-48.40815585031863, -24.270087484855186]}}, {"type": "Feature", "properties": {"norad_id": 34127, "name": "COSMOS 2251 DEB", "group": "cosmos-2251-debris", "lat": 69.90564217589085, "lon": 178.25792620669037, "alt_km": 848.5472001956523, "timestamp": "2025-12-09T20:37:09.683446+00:00", "meta": {"OBJECT_NAME": "COSMOS 2251 DEB", "OBJECT_ID": "1993-036KY", "EPOCH": "2025-12-09T07:01:03.270144", "MEAN_MOTION": 14.31489574, "ECCENTRICITY": 0.0114851, "INCLINATION": 74.1789, "RA_OF_ASC_NODE": 50.0937, "ARG_OF_PERICENTER": 250.9536, "MEAN_ANOMALY": 172.8307, "EPHEMERIS_TYPE": 0, "CLASSIFICATION_TYPE": "U", "NORAD_CAT_ID": 34127, "ELEMENT_SET_NO": 999, "REV_AT_EPOCH": 86722, "BSTAR": 0.0028226, "MEAN_MOTION_DOT": 8.044e-05, "MEAN_MOTION_DDOT": 0}, "tle": {"line1": "1 34127U 93036KY  25343.29239896  .00008044  00000+0  28226-2 0  9990", "line2": "2 34127  74.1789  50.0937 0114851 250.9536 172.8307 14.31489574867228"}}, "geometry": {"type": "Point", "coordinates": [178.25792620669037, 69.90564217589085]}}, {"type": "Feature", "properties": {"norad_id": 34128, "name": "COSMOS 2251 DEB", "group": "cosmos-2251-debris", "lat": -48.80895950676563, "lon": -76.53892473428499, "alt_km": 575.7503083424563, "timestamp": "2025-12-09T20:37:09.683457+00:00", "meta": {"OBJECT_NAME": "COSMOS 2251 DEB", "OBJECT_ID": "1993-036KZ", "EPOCH": "2025-12-09T15:13:39.654336", "MEAN_MOTION": 15.00916716, "ECCENTRICITY": 0.00262491, "INCLINATION": 74.0001, "RA_OF_ASC_NODE": 303.0588, "ARG_OF_PERICENTER": 55.8022, "MEAN_ANOMALY": 119.6825, "EPHEMERIS_TYPE": 0, "CLASSIFICATION_TYPE": "U", "NORAD_CAT_ID": 34128, "ELEMENT_SET_NO": 999, "REV_AT_EPOCH": 89120, "BSTAR": 0.002628386, "MEAN_MOTION_DOT": 0.00033855, "MEAN_MOTION_DDOT": 0}, "tle": {"line1": "1 34128U 93036KZ  25343.63448674  .00033855  00000+0  26284-2 0  9995", "line2": "2 34128  74.0001 303.0588 0026249  55.8022 119.6825 15.00916716891202"}}, "geometry": {"type": "Point", "coordinates": [-76.53892473428499, -48.80895950676563]}}, {"type": "Feature", "properties": {"norad_id": 34129, "name": "COSMOS 2251 DEB", "group": "cosmos-2251-debris", "lat": 48.22431304400238, "lon": 146.47307732110954, "alt_km": 627.3323521356833, "timestamp": "2025-12-09T20:37:09.683467+00:00", "meta": {"OBJECT_NAME": "COSMOS 2251 DEB", "OBJECT_ID": "1993-036LA", "EPOCH": "2025-12-09T10:16:37.675776", "MEAN_MOTION": 14.75640899, "ECCENTRICITY": 0.00328216, "INCLINATION": 74.0355, "RA_OF_ASC_NODE": 346.0056, "ARG_OF_PERICENTER": 68.618, "MEAN_ANOMALY": 291.8491, "EPHEMERIS_TYPE": 0, "CLASSIFICATION_TYPE": "U", "NORAD_CAT_ID": 34129, "ELEMENT_SET_NO": 999, "REV_AT_EPOCH": 61249, "BSTAR": 0.0017943193, "MEAN_MOTION_DOT": 0.0001235, "MEAN_MOTION_DDOT": 0}, "tle": {"line1": "1 34129U 93036LA  25343.42821384  .00012350  00000+0  17943-2 0  9995", "line2": "2 34129  74.0355 346.0056 0032821  68.6180 291.8491 14.75640899612493"}}, "geometry": {"type": "Point", "coordinates": [146.47307732110954, 48.22431304400238]}}, {"type": "Feature", "properties": {"norad_id": 34136, "name": "COSMOS 2251 DEB", "group": "cosmos-2251-debris", "lat": -55.40041885394526, "lon": -107.14320214787018, "alt_km": 611.6787583842715, "timestamp": "2025-12-09T20:37:09.683478+00:00", "meta": {"OBJECT_NAME": "COSMOS 2251 DEB", "OBJECT_ID": "1993-036LH", "EPOCH": "2025-12-09T15:25:25.844736", "MEAN_MOTION": 14.80045861, "ECCENTRICITY": 0.00860447, "INCLINATION": 74.0208, "RA_OF_ASC_NODE": 48.7404, "ARG_OF_PERICENTER": 172.5136, "MEAN_ANOMALY": 352.4587, "EPHEMERIS_TYPE": 0, "CLASSIFICATION_TYPE": "U", "NORAD_CAT_ID": 34136, "ELEMENT_SET_NO": 999, "REV_AT_EPOCH": 89964, "BSTAR": 0.00078271266, "MEAN_MOTION_DOT": 6.283e-05, "MEAN_MOTION_DDOT": 0}, "tle": {"line1": "1 34136U 93036LH  25343.64266024  .00006283  00000+0  78271-3 0  9991", "line2": "2 34136  74.0208  48.7404 0086044 172.5136 352.4587 14.80045861899641"}}, "geometry": {"type": "Point", "coordinates": [-107.14320214787018, -55.40041885394526]}}, {"type": "Feature", "properties": {"norad_id": 34139, "name": "COSMOS 2251 DEB", "group": "cosmos-2251-debris", "lat": 2.9703960714917486, "lon": 78.70235376691645, "alt_km": 725.7513362764503, "timestamp": "2025-12-09T20:37:09.683488+00:00", "meta": {"OBJECT_NAME": "COSMOS 2251 DEB", "OBJECT_ID": "1993-036LL", "EPOCH": "2025-12-09T05:33:30.589920", "MEAN_MOTION": 14.58984878, "ECCENTRICITY": 0.0042552, "INCLINATION": 74.0312, "RA_OF_ASC_NODE": 260.7491, "ARG_OF_PERICENTER": 332.4105, "MEAN_ANOMALY": 149.901, "EPHEMERIS_TYPE": 0, "CLASSIFICATION_TYPE": "U", "NORAD_CAT_ID": 34139, "ELEMENT_SET_NO": 999, "REV_AT_EPOCH": 88098, "BSTAR": 0.0020759, "MEAN_MOTION_DOT": 9.851e-05, "MEAN_MOTION_DDOT": 0}, "tle": {"line1": "1 34139U 93036LL  25343.23160405  .00009851  00000+0  20759-2 0  9996", "line2": "2 34139  74.0312 260.7491 0042552 332.4105 149.9010 14.58984878880983"}}, "geometry": {"type": "Point", "coordinates": [78.70235376691645, 2.9703960714917486]}}]}